X,Y,OBJECTID,NCES_TYPE,COLLEGE,CAMPUS,ADDRESS,CITY,ZIPCODE,PLUS_FOUR,GEOG_TOWN,MAIN_TEL,URL,NCES_ID,TYPE,CATEGORY,DEGREEOFFR,AWARDSOFFR,LARGEPROG,CAMPUSSETT,CAMPUSHOUS,L_SRC
313075.812700003,827487.625500001,1,"< 2-year, Private for-profit",Cape Cod Electrical School,,9 New Venture Drive,South Dennis,02660,,DENNIS,(508) 760-1983,http://capecodelectricalschool.com/,,PRI,Private Occupational Program,C,,Electrician,Town: Fringe,No,mass.gov
296838.814199999,827550.896000002,2,"2-year, Public",Cape Cod Community College,Main Campus,2240 Iyannough Road,West Barnstable,02668,1599,BARNSTABLE,(508) 362-2131,http://www.capecod.edu/,165194,PUB,Community College,"C, A","Less than one year certificate;Associate's degree",,City: Small,No,nces.ed.gov
228490.714199997,827680.440900002,3,"< 2-year, Private for-profit",Rob Roy Academy,Fall River,260 S Main Street,Fall River,02720,,FALL RIVER,(508) 672-4751,http://www.rob-roy.com,165750,PRI,Private Vocational School,C,"Less than one year certificate;One but less than two years certificate","Cosmetology/Cosmetologist, General",Suburb: Large,No,nces.ed.gov
228705.358000003,829854.331799999,4,"< 2-year, Public",Diman Regional Technical Institute Division of Continuing Education,,1082 Davol Street,Fall River,02720,,FALL RIVER,(508) 678-2891,https://www.dimanregional.org/domain/1100,165608,PUB,Adult Education,C,One but less than two years certificate,Licensed Practical/Vocational Nurse Training,Suburb: Large,No,nces.ed.gov
231624.4142,830191.942600001,5,"2-year, Public",Bristol Community College,Fall River,777 Elsbree Street,Fall River,02720,,FALL RIVER,(508) 678-2811,https://bristolcc.edu/locations/taunton/index.html,165033,PUB,Community College,"C, A","Less than one year certificate;One but less than two years certificate;Associate's degree",,Suburb: Large,No,nces.ed.gov
273053.304200001,832650.1809,6,"4-year, Public",Massachusetts Maritime Academy,,101 Academy Drive,Buzzards Bay,02532,,BOURNE,(508) 830-5000,http://www.maritime.edu,166692,PUB,State University,"B, M","Bachelor's degree;Master's degree",,Suburb: Midsize,Yes,nces.ed.gov
276629.684199996,833190.320900001,7,"< 2-year, Public",Upper Cape Cod Regional Vocational Technical School Practical Nursing Program,,220 Sandwich Road,Bourne,02532,,BOURNE,(508) 759-7711,http://www.uctpracticalnursing.com/,373711,PUB,Medical Program,C,One but less than two years certificate,Licensed Practical/Vocational Nurse Training,Suburb: Midsize,No,nces.ed.gov
214536.9208,837972.471900001,8,"< 2-year, Private for-profit",Motoring Technical Training Institute,,1241 Fall River Avenue,Seekonk,02771,,SEEKONK,(508) 336-6611,https://www.mtti.edu/,414124,PRI,Technical Institute,C,One but less than two years certificate,"Electrician, Heating, Air Conditioning, Ventilation and Refrigeration Maintenance Technology",Suburb: Large,No,nces.ed.gov
233566.028700002,851057.933800001,9,"2-year, Public",Bristol Community College,Taunton,2 Hamilton Street,Taunton,02780,,TAUNTON,(774) 357-3767,https://bristolcc.edu/locations/taunton/index.html,165033,PUB,Community College,"C, A","Less than one year certificate;One but less than two years certificate;Associate's degree",,Suburb: Large,No,nces.ed.gov
248771.763300002,849277.515999999,10,"2-year, Public",Massasoit Community College,Middleborough Center,49 Union Street,Middleborough,02346,,MIDDLEBOROUGH,(508) 588-9100,http://www.massasoit.edu/,166823,PUB,Community College,"C, A","Less than one year certificate;One but less than two years certificate;Associate's degree",,Suburb: Large,No,nces.ed.gov
233857.107199997,850258.113400001,11,"< 2-year, Private for-profit",Rob Roy Academy,Taunton,1 School Street,Taunton,02780,,TAUNTON,(508) 822-1405,http://www.rob-roy.com,168032,PRI,Private Vocational School,C,One but less than two years certificate,"Cosmetology/Cosmetologist, General",Suburb: Large,No,nces.ed.gov
218764.9362,855296.0977,12,"2-year, Public",Bristol Community College,Attleboro,11 Field Road,Attleboro,02703,,ATTLEBORO,(508) 226-2484,https://bristolcc.edu/locations/attleboro/index.html,165033,PUB,Community College,"C, A","Less than one year certificate;One but less than two years certificate;Associate's degree",,Suburb: Large,No,nces.ed.gov
265952.881399997,856763.1657,13,"< 2-year, Private for-profit",Spa Tech Institute,Plymouth,59 Industrial Park Road,Plymouth,02360,,PLYMOUTH,(800)262-8530,https://www.spatech.edu/,445656,PRI,Private Vocational School,C,Less than one year certificate,Aesthetician/Esthetician and Skin Care Specialist,Suburb: Large,No,nces.ed.gov
226173.174199998,857350.807399999,14,"4-year, Private not-for-profit",Wheaton College,,26 East Main Street,Norton,02766,,NORTON,(508) 286-7722,http://www.wheatoncollege.edu,168281,PRI,Liberal Arts College,B,Bachelor's degree,,Suburb: Large,Yes,nces.ed.gov
243544.754699998,859815.653999999,15,"4-year, Public",Bridgewater State University,,131 Summer Street,Bridgewater,02325,,BRIDGEWATER,(508) 531-1000,http://www.bridgew.edu,165024,PUB,State University,"C, B, PBC, M, PMC","Less than one year certificate;Bachelor's degree;Postbaccalaureate certificate;Master's degree;Post-master's certificate",Education,Suburb: Large,Yes,nces.ed.gov
234636.064199999,862276.3409,16,"< 2-year, Public",Southeastern Technical Institute,,250 Foundry Street,South Easton,02375,,EASTON,(508) 238-1860,http://www.stitech.edu,167871,PUB,Technical Institute,C,"Less than one year certificate;One but less than two years certificate",Licensed Practical/Vocational Nurse Training,Rural: Fringe,No,nces.ed.gov
164434.984999999,865870.346799999,17,"4-year, Private not-for-profit",Nichols College,,121 Center Road,Dudley,01571,,DUDLEY,(508) 213-1560,http://www.nichols.edu,167260,PRI,Liberal Arts College,"A, B, M","Associate's degree;Bachelor's degree;Master's degree",Business Program,Suburb: Large,Yes,nces.ed.gov
234713.072800003,867710.419599999,18,"4-year, Private not-for-profit",Stonehill College,,320 Washington Street,Easton,02357,0100,EASTON,(508) 565-1000,http://www.stonehill.edu,167996,PRI,Liberal Arts College,"B, M","Less than one year certificate;Bachelor's degree;Master's degree",,Suburb: Large,Yes,nces.ed.gov
110324.174199998,867761.640900001,19,"4-year, Private not-for-profit",Bay Path University,,588 Longmeadow Street,Longmeadow,01106,,LONGMEADOW,(413) 565-1000,http://www.baypath.edu,164632,PRI,"Women's Liberal Arts College, Coed Graduate School","C, A, B, PBC, M, PMC, D","Less than one year certificate;Associate's degree;Bachelor's degree;Postbaccalaureate certificate;Master's degree;Post-master's certificate;Doctor's degree - professional practice",Business,Suburb: Large,Yes,nces.ed.gov
242177.854099996,869597.6974,20,"2-year, Public",Massasoit Community College,Brockton,1 Massasoit Boulevard,Brockton,02302,3996,BROCKTON,(508) 588-9100,http://www.massasoit.mass.edu,166823,PUB,Community College,"C, A","Less than one year certificate;One but less than two years certificate;Associate's degree",,Suburb: Large,No,nces.ed.gov
208448.991700001,870587.1818,21,"4-year, Private not-for-profit",Dean College,,99 Main Street,Franklin,02038,,FRANKLIN,(877) 879-3326,http://www.dean.edu,165574,PRI,Liberal Arts College,"C, A, B","Less than one year certificate;Associate's degree;Bachelor's degree",,Suburb: Large,Yes,nces.ed.gov
162221.775200002,876040.647999998,22,"< 2-year, Public",Bay Path Adult Evening School,,57 Old Muggett Hill Road,Charlton,01507,1331,CHARLTON,(508) 248-5971,http://www.baypath.net/bay-path-at-night/,457624,PUB,Adult Education,C,One but less than two years certificate,"Practical Nursing, Vocational Nursing and Nursing Assistants, Other",Rural: Fringe,No,nces.ed.gov
112454.8094,874127.095100001,23,"4-year, Private not-for-profit",American International College,Main Campus,1000 State Street,Springfield,01109,,SPRINGFIELD,(413) 737-7000,http://www.aic.edu,164447,PRI,Liberal Arts College,"A, B, PBC, M, PMC, D","Associate's degree;Bachelor's degree;Postbaccalaureate certificate;Master's degree;Post-master's certificate;Doctor's degree - research/scholarship;Doctor's degree - professional practice",,City: Midsize,Yes,nces.ed.gov
115595.665899999,874470.126600001,24,"4-year, Private not-for-profit",Western New England University,,1215 Wilbraham Road,Springfield,01119,2684,SPRINGFIELD,(413) 782-3111,http://www1.wne.edu,168254,PRI,Private University,"C, A, B, PBC, M, D","Less than one year certificate;Associate's degree;Bachelor's degree;Postbaccalaureate certificate;Master's degree;Doctor's degree - research/scholarship;Doctor's degree - professional practice",,City: Midsize,Yes,nces.ed.gov
112815.290600002,874750.160999998,25,"4-year, Private not-for-profit",American International College,Edgewood Gardens,125 Cortland Street,Springfield,01109,,SPRINGFIELD,(800) 242-3142,http://www.aic.edu,164447,PRI,Liberal Arts College,"A, B, PBC, M, PMC, D","Associate's degree;Bachelor's degree;Postbaccalaureate certificate;Master's degree;Post-master's certificate;Doctor's degree - research/scholarship;Doctor's degree - professional practice",,City: Midsize,Yes,nces.ed.gov
175286.930600002,896425.408,26,"< 2-year, Private for-profit",Porter And Chester Institute,Worcester,220 Brooks Street,Worcester,01606,1400,WORCESTER,(508) 304-6500,https://www.porterchester.com,13017405,PRI,Technical Institute,C,One but less than two years certificate,,City: Midsize,No,nces.ed.gov
106410.348300003,897107.516899999,27,"4-year, Private not-for-profit",Smith College,,33 Elm Street,Northampton,01063,,NORTHAMPTON,(413) 585-2700,http://www.smith.edu,167835,PRI,Women's Liberal Arts College,"B, PBC, M, PMC, D","Bachelor's degree;Postbaccalaureate certificate;Master's degree;Doctor's degree - research/scholarship",,Suburb: Large,Yes,nces.ed.gov
225616.590800002,897289.7326,28,"4-year, Private not-for-profit",Hebrew College,,160 Herrick Road,Newton Centre,02459,,NEWTON,(617) 559-8600,http://www.hebrewcollege.edu,166045,PRI,Divinity School,"B, PBC, M, PMC","Postbaccalaureate certificate;Master's degree",Jewish Studies,City: Small,No,nces.ed.gov
234391.798100002,897545.977600001,29,"4-year, Private not-for-profit",Gordon-Conwell Theological Seminary,Boston,90 Warren Street,Roxbury,02119,,BOSTON,(617) 427-7293,http://www.gordonconwell.edu/,165945,PRI,Divinity School,"PBC, M, D","Postbaccalaureate certificate;Master's degree;Doctor's degree",Evangelical Seminary,Suburb: Large,Yes,nces.ed.gov
233336.217699997,897718.092099998,30,"2-year, Public",Roxbury Community College,,1234 Columbus Avenue,Roxbury Crossing,02120,3400,BOSTON,(617) 427-0060,https://www.rcc.mass.edu/,167631,PUB,Community College,"C, A","Less than one year certificate;One but less than two years certificate;Associate's degree",,City: Large,No,nces.ed.gov
114983.886600003,897768.4252,31,"4-year, Private not-for-profit",Hampshire College,,893 West Street,Amherst,01002,,AMHERST,(413) 549-4600,http://www.hampshire.edu,166018,PRI,Liberal Arts College,B,Bachelor's degree,,Suburb: Large,Yes,nces.ed.gov
165472.6602,897866.692699999,32,"4-year, Private not-for-profit",Anna Maria College,,50 Sunset Lane,Paxton,01612,1198,PAXTON,(508) 849-3300,http://www.annamaria.edu,164492,PRI,Liberal Arts College,"B, M, PMC","Bachelor's degree;Postbaccalaureate certificate;Master's degree;Post-master's certificate",,Rural: Fringe,Yes,nces.ed.gov
92893.8134000003,876596.3869,33,"4-year, Public",Westfield State University,,577 Western Avenue,Westfield,01086,1630,WESTFIELD,(413) 572-5300,http://www.westfield.ma.edu,168263,PUB,State University,"B, PBC, M, PMC","Bachelor's degree;Postbaccalaureate certificate;Master's degree;Post-master's certificate",Education,Suburb: Large,Yes,nces.ed.gov
109043.6756,877393.354600001,34,"4-year, Private not-for-profit",College of Our Lady of the Elms,,291 Springfield Street,Chicopee,01013,,CHICOPEE,(413) 594-2761,http://www.elms.edu,167394,PRI,Liberal Arts College,"C, A, B, PBC, M, PMC, D","Less than one year certificate;One but less than two years certificate;Associate's degree;Bachelor's degree;Postbaccalaureate certificate;Master's degree;Post-master's certificate;Doctor's degree - professional practice",,Suburb: Large,Yes,nces.ed.gov
106575.1087,877947.025199998,35,"< 2-year, Private for-profit",DiGrigoli School of Cosmetology,,1578 Riverdale Street,West Springfield,01089,,WEST SPRINGFIELD,(413) 827-0037,http://www.digrigoli.com/,451255,PRI,Private Vocational School,C,One but less than two years certificate,"Cosmetology/Cosmetologist, General",Suburb: Large,No,nces.ed.gov
123143.608000003,878222.168000001,36,"< 2-year, Private for-profit",Monarch School of Cosmetology,,"2701 Boston Road, Suite 2",Wilbraham,01095,,WILBRAHAM,(413) 599-4600,http://monarchschoolofcosmetology.com/,,PRI,Private Vocational School,C,,Cosmetology,Town: Fringe,No,mass.gov
240420.459799998,866055.758400001,37,"< 2-year, Private for-profit",Mafy's Nails Academy,,2071 Main Street,Brockton,02301,,BROCKTON,(781) 767-1111,http://mafysnailsacademy.com/,,PRI,Private Vocational School,C,,Cosmetology,Suburb: Large,No,mass.gov
241959.6153,870969.020300001,38,"2-year, Private not-for-profit",Signature Healthcare Brockton Hospital School of Nursing,,53 Adams Street,Brockton,02302,,BROCKTON,(508) 941-7040,http://www.bhson.org/,165060,PRI,Medical Program,C,Two but less than 4 years certificate,Registered Nursing/Registered Nurse,Suburb: Large,No,nces.ed.gov
206494.701099999,871625.006299999,39,"< 2-year, Public",Tri County Regional Vocational Technical High School Adult Education,,147 Pond Street,Franklin,02038,,FRANKLIN,(508) 528-5400,http://www.tri-county.us/adulted,459408,PUB,Adult Education,C,One but less than two years certificate,"Practical Nursing, Vocational Nursing and Nursing Assistants, Other",Suburb: Large,No,nces.ed.gov
112601.2267,872959.261799999,40,"4-year, Private not-for-profit",Springfield College,Main Campus,263 Alden Street,Springfield,01109,,SPRINGFIELD,(413) 748-3000,http://www.springfield.edu/,167899,PRI,Private College,"B, M, PMC, D","Bachelor's degree;Postbaccalaureate certificate;Master's degree;Post-master's certificate;Doctor's degree - research/scholarship;Doctor's degree - professional practice",,City: Midsize,Yes,nces.ed.gov
109684.416199997,873022.741799999,41,"4-year, Private not-for-profit",Cambridge College,Springfield,1500 Main Street,Springfield,01115,,SPRINGFIELD,(413) 747-0204,https://springfield.cambridgecollege.edu/,165167,PRI,Private College,"C, B, PBC, M, PMC, D","Less than one year certificate;Associate's degree;Bachelor's degree;Postbaccalaureate certificate;Master's degree;Post-master's certificate;Doctor's degree - research/scholarship",,City: Midsize,No,nces.ed.gov
110804.792800002,873717.9826,42,"2-year, Public",Springfield Technical Community College,,1 Armory Square,Springfield,01102,9000,SPRINGFIELD,(413) 781-7822,http://www.stcc.edu,167905,PUB,Community College,"C, A","Less than one year certificate;One but less than two years certificate;Associate's degree",,City: Midsize,No,nces.ed.gov
322250.285300002,783925.5121,43,"4-year, Public",University of Massachusetts Nantucket Field Station,Nantucket Field Station,180 Polpis Road,Nantucket,02554,,NANTUCKET,(508) 228-9475,https://www.umb.edu/nantucket/,166638,PUB,University of Massachusetts,"M, D","Less than one year certificate;Bachelor's degree;Postbaccalaureate certificate;Master's degree;Post-master's certificate;Doctor's degree - research/scholarship;Doctor's degree - professional practice",Intercampus Marine Science Graduate Program,City: Large,Yes,nces.ed.gov
249167.695799999,816268.286800001,44,"4-year, Public",University of Massachusetts Dartmouth School for Marine Science and Technology,New Bedford - West,706 South Rodney French Boulevard,New Bedford,02744,1221,NEW BEDFORD,(508) 999-8193,http://www.umassd.edu/smast/,167987,PUB,University of Massachusetts,"C, B, PBC, M, PMC, D","Less than one year certificate;One but less than two years certificate;Bachelor's degree;Postbaccalaureate certificate;Master's degree;Post-master's certificate;Doctor's degree - research/scholarship;Doctor's degree - professional practice",Marine Science & Technology,Suburb: Midsize,Yes,nces.ed.gov
241202.324199997,820084.6479,45,"4-year, Public",University of Massachusetts Dartmouth,Dartmouth,285 Old Westport Road,North Dartmouth,02747,2300,DARTMOUTH,(508) 999-8000,http://www.umassd.edu,167987,PUB,University of Massachusetts,"C, B, PBC, M, PMC, D","Less than one year certificate;One but less than two years certificate;Bachelor's degree;Postbaccalaureate certificate;Master's degree;Post-master's certificate;Doctor's degree - research/scholarship;Doctor's degree - professional practice",,Suburb: Midsize,Yes,nces.ed.gov
247858.8112,820718.128800001,46,"2-year, Public",Bristol Community College,New Bedford,800 Purchase Street,New Bedford,02740,,NEW BEDFORD,(508) 984-8226,https://bristolcc.edu/locations/newbedford/index.html,165033,PUB,Community College,"C, A","Less than one year certificate;One but less than two years certificate;Associate's degree",,Suburb: Large,No,nces.ed.gov
300843.190800004,823015.1074,47,"2-year, Public",Cape Cod Community College,Satellite Campus Hyannis,540 Main Street,Hyannis,02601,1599,BARNSTABLE,(508) 362-2131,http://www.capecod.edu/,165194,PUB,Community College,"C, A","Less than one year certificate;Associate's degree",,City: Small,No,nces.ed.gov
242636.292000003,823585.6316,48,"4-year, Public",University of Massachusetts School of Law,UMass Dartmouth,333 Faunce Corner Road,North Dartmouth,02747,,DARTMOUTH,(508) 999-8000,http://www.umassd.edu/law/,167987,PUB,University of Massachusetts,D,"Less than one year certificate;One but less than two years certificate;Bachelor's degree;Postbaccalaureate certificate;Master's degree;Post-master's certificate;Doctor's degree - research/scholarship;Doctor's degree - professional practice",Law,Suburb: Midsize,No,nces.ed.gov
247868.108599998,824790.5077,49,"< 2-year, Private for-profit",Rob Roy Academy,New Bedford,1872 Acushnet Avenue,New Bedford,02720,,NEW BEDFORD,(508) 995-8711,http://www.rob-roy.com,167039,PRI,Private Vocational School,C,One but less than two years certificate,"Cosmetology/Cosmetologist, General",Suburb: Midsize,No,nces.ed.gov
231024.402999997,825636.0493,50,"4-year, Public",University of Massachusetts Dartmouth Center for Innovation and Entrepreneurship,Fall River,151 Martine Street,Fall River,02723,,FALL RIVER,(508) 910-9800,https://www.umassd.edu/innovate/,167987,PUB,University of Massachusetts,"C, B, PBC, M, PMC, D","Less than one year certificate;One but less than two years certificate;Bachelor's degree;Postbaccalaureate certificate;Master's degree;Post-master's certificate;Doctor's degree - research/scholarship;Doctor's degree - professional practice",Innovation & Entrepreneurship,Suburb: Midsize,Yes,nces.ed.gov
111242.353399999,890133.105099998,51,"4-year, Private not-for-profit",Mount Holyoke College,,50 College Street,South Hadley,01075,,SOUTH HADLEY,(413) 538-2000,http://www.mtholyoke.edu,166939,PRI,Women's Liberal Arts College,"B, PBC, M","Bachelor's degree;Master's degree",,Suburb: Large,Yes,nces.ed.gov
236444.529700004,890136.110399999,52,"4-year, primarily associate's, Private not-for-profit",Laboure College of Healthcare,,303 Adams Street,Milton,02186,,MILTON,(617) 202-3149,http://www.laboure.edu,165264,PRI,Medical Program,"C, A, B","Less than one year certificate;Associate's degree;Bachelor's degree",,Suburb: Large,No,nces.ed.gov
174616.614200003,890397.760899998,53,"< 2-year, Private for-profit",Rob Roy Academy,Worcester,150 Pleasant Sreett,Worcester,01609,,WORCESTER,(508) 799-2111,http://www.rob-roy.com,373696,PRI,Private Vocational School,C,"Less than one year certificate;One but less than two years certificate","Cosmetology/Cosmetologist, General",City: Midsize,No,nces.ed.gov
175197.292000003,890432.2082,54,"4-year, Private not-for-profit",New England School of Acupuncture at MCPHS,Worcester,19 Norwich Street,Worcester,01608,,WORCESTER,(508) 373-5607,https://www.mcphs.edu/academics/school-of-acupuncture,166656,PRI,Graduate Medical Program,"C, M, D","Less than one year certificate;One but less than two years certificate;Bachelor's degree;Postbaccalaureate certificate;Master's degree;Post-master's certificate;Doctor's degree - research/scholarship;Doctor's degree - professional practice;Doctor's degree",Accupuncture,City: Midsize,No,nces.ed.gov
175209.443400003,890475.932700001,55,"4-year, Private not-for-profit",Massachusetts College of Pharmacy and Health Science,Worcester,19 Foster Street,Worcester,01608,,WORCESTER,(508) 373-5607,https://www.mcphs.edu/,166656,PRI,Medical School,"C, B, PBC, M, PMC, D","Less than one year certificate;One but less than two years certificate;Bachelor's degree;Postbaccalaureate certificate;Master's degree;Post-master's certificate;Doctor's degree - research/scholarship;Doctor's degree - professional practice;Doctor's degree",Pharmacy/Health Science,City: Midsize,Yes,nces.ed.gov
171768.1281,890967.560400002,56,"4-year, Public",Worcester State University,,486 Chandler Street,Worcester,01602,2597,WORCESTER,(508) 929-8000,http://www.worcester.edu,168430,PUB,State University,"B, PBC, M, PMC","Less than one year certificate;Bachelor's degree;Postbaccalaureate certificate;Master's degree;Post-master's certificate",Education,City: Midsize,Yes,nces.ed.gov
177047.234200001,890988.4309,57,"< 2-year, Private for-profit",Bancroft School of Massage Therapy,,333 Shrewsbury Street,Worcester,01604,,WORCESTER,(508) 757-7923,http://www.bancroftsmt.com,164599,PRI,Medical Program,C,Less than one year certificate,Massage Therapy/Therapeutic Massage,City: Midsize,No,nces.ed.gov
240339.412699997,891306.8365,58,"4-year, Private not-for-profit",Eastern Nazarene College,,23 East Elm Avenue,Quincy,02170,,QUINCY,(617) 745-3000,http://www.enc.edu,165644,PRI,Liberal Arts College,"A, B, M","Associate's degree;Bachelor's degree;Postbaccalaureate certificate;Master's degree",,Suburb: Large,Yes,nces.ed.gov
174457.689199999,891527.193,59,"4-year, Private not-for-profit",Worcester Polytechnic Institute,,100 Institute Road,Worcester,01609,,WORCESTER,(508) 831-5000,http://www.wpi.edu,168421,PRI,Research University,"B, PBC, M, D","Bachelor's degree;Postbaccalaureate certificate;Master's degree;Post-master's certificate;Doctor's degree - research/scholarship",Technical Program,City: Midsize,Yes,nces.ed.gov
178408.154200003,891937.210900001,60,"4-year, Public",University of Massachusetts Chan Medical School,Worcester,55 Lake Avenue North,Worcester,01655,,WORCESTER,(508) 856-1542,http://www.umassmed.edu,166708,PUB,University of Massachusetts,"M, PMC, D","Master's degree;Post-master's certificate;Doctor's degree - research/scholarship;Doctor's degree - professional practice",Medicine & Biomedical Science,City: Midsize,No,nces.ed.gov
174581.136600003,892745.751600001,61,"< 2-year, Private for-profit",Toni & Guy Hairdressing Academy,Worcester,6 Park Avenue,Worcester,01605,,WORCESTER,(508) 756-6060,http://worcester.toniguy.edu/,434344,PRI,Private Vocational School,C,One but less than two years certificate,"Cosmetology/Cosmetologist, General",City: Midsize,No,nces.ed.gov
188804.930200003,892859.0902,62,"< 2-year, Private for-profit",Spa Tech Institute,Westboro,227 Turnpike Road,Westboro,01581,,WESTBOROUGH,(508) 836-8864,https://www.spatech.edu/,445647,PRI,Private Vocational School,C,Less than one year certificate,Aesthetician/Esthetician and Skin Care Specialist,Suburb: Large,No,nces.ed.gov
207086.869999997,893523.567699999,63,"2-year, Public",Massachusetts Bay Community College,Framingham,19 Flagg Drive,Framingham,01702,5928,FRAMINGHAM,(508) 270-4000,http://www.massbay.edu,166647,PUB,Community College,"C, A","Less than one year certificate;One but less than two years certificate;Associate's degree",,Suburb: Large,No,nces.ed.gov
216014.994199999,893687.350900002,64,"4-year, Private not-for-profit",Wellesley College,,106 Central Street,Wellesley,02481,8203,WELLESLEY,(781) 283-1000,http://www.wellesley.edu,168218,PRI,Women's Liberal Arts College,B,Bachelor's degree,,Suburb: Large,Yes,nces.ed.gov
219465.9692,893690.018399999,65,"4-year, Private not-for-profit",Franklin W. Olin College of Engineering,,1000 Olin Way,Needham,02492,1245,NEEDHAM,(781) 292-2300,http://www.olin.edu,441982,PRI,Private College,B,Bachelor's degree,Engineering,Suburb: Large,Yes,nces.ed.gov
172870.670299999,893796.261799999,66,"4-year, Private not-for-profit",Assumption University,,500 Salisbury Street,Worcester,01609,1296,WORCESTER,(508) 767-7000,http://www.assumption.edu,164562,PRI,Liberal Arts College,"C, A, B, PBC, M, PMC","Bachelor's degree;Postbaccalaureate certificate;Master's degree;Post-master's certificate",,City: Midsize,Yes,nces.ed.gov
224467.710199997,893883.586199999,67,"4-year, Private not-for-profit",William James College,,1 Wells Avenue,Newton,02459,,NEWTON,(617) 327-6777,http://www.williamjames.edu/,166717,PRI,Private College,"B, PBC, M, D","Bachelor's degree;Postbaccalaureate certificate;Master's degree;Post-master's certificate;Doctor's degree - professional practice",Psychology,City: Small,No,nces.ed.gov
205270.9617,894171.497099999,68,"4-year, Public",Framingham State University,,100 State Street,Framingham,01701,9101,FRAMINGHAM,(508) 620-1220,http://www.framingham.edu,165866,PUB,State University,"B, PBC, M","Less than one year certificate;Bachelor's degree;Postbaccalaureate certificate;Master's degree;Post-master's certificate",Education,City: Small,Yes,nces.ed.gov
219279.526100002,894189.506000001,69,"4-year, Private not-for-profit",Babson College,,231 Forest Street,Wellesley,02457,0310,WELLESLEY,(781) 235-1200,http://www.babson.edu,164580,PRI,Business School,"B, M, PMC","Bachelor's degree;Postbaccalaureate certificate;Master's degree",Business,Suburb: Large,Yes,nces.ed.gov
236561.239200003,895186.4318,70,"< 2-year, Private for-profit",Jupiter Beauty Academy,,95 Freeport Street,Boston,02122,2834,BOSTON,(617) 288-1811,http://www.jupiterbeautyacademy.com/,484057,PRI,Private Vocational School,C,"Less than one year certificate;One but less than two years certificate",Nail Technician/Specialist and Manicurist,City: Large,No,nces.ed.gov
219485.394199997,895750.100900002,71,"2-year, Public",Massachusetts Bay Community College,Wellesley Hills,50 Oakland Street,Wellesley Hills,02481,,WELLESLEY,(781) 239-3000,http://www.massbay.edu,166647,PUB,Community College,"C, A","Less than one year certificate;One but less than two years certificate;Associate's degree",,Suburb: Large,No,nces.ed.gov
175686.314199999,895962.150899999,72,"2-year, Public",Quinsigamond Community College,,670 West Boylston Street,Worcester,01606,,WORCESTER,(508) 854-4262,http://www.qcc.edu,167534,PUB,Community College,"C, A","Less than one year certificate;One but less than two years certificate;Associate's degree",,City: Midsize,No,nces.ed.gov
237942.844999999,896082.866,73,"4-year, Public",University of Massachusetts Boston,Boston,100 Morrissey Boulevard,Boston,02125,3393,BOSTON,(617) 287-5000,http://www.umb.edu,166638,PUB,University of Massachusetts,"C, B, PBC, M, PMC, D","Less than one year certificate;Bachelor's degree;Postbaccalaureate certificate;Master's degree;Post-master's certificate;Doctor's degree - research/scholarship;Doctor's degree - professional practice",,City: Large,Yes,nces.ed.gov
230562.754199997,896349.320900001,74,"4-year, Private not-for-profit",Hellenic College-Holy Cross Greek Orthodox School of Theology,,50 Goddard Avenue,Brookline,02445,,BROOKLINE,(617) 731-3500,http://www.hchc.edu,166054,PRI,Liberal Arts College,"B, M","Bachelor's degree;Postbaccalaureate certificate;Master's degree",Greek Orthodox Studies,Suburb: Large,Yes,nces.ed.gov
236026.055200003,900548.025899999,75,"< 2-year, Private for-profit",Empire Beauty School,Boston,30 West Street,Boston,02111,,BOSTON,(508) 370-7447,https://www.empire.edu/cosmetology-schools/massachusetts/boston?v=local,164845,PRI,Private Vocational School,C,One but less than two years certificate,"Cosmetology/Cosmetologist, General",City: Large,No,nces.ed.gov
235097.334200002,900619.4109,76,"4-year, Private not-for-profit",Fisher College,,118 Beacon Street,Boston,02116,,BOSTON,(617) 236-8800,http://www.fisher.edu,165802,PRI,Liberal Arts College,"C, A, B, M","One but less than two years certificate;Associate's degree;Bachelor's degree;Master's degree",,City: Large,Yes,nces.ed.gov
236181.312700003,900906.0308,77,"4-year, Private not-for-profit",Suffolk University,,73 Tremont Street,Boston,02108,,BOSTON,(617) 573-8000,http://www.suffolk.edu,168005,PRI,Research University,"C, A, B, PBC, M, PMC, D","Less than one year certificate;One but less than two years certificate;Associate's degree;Two but less than 4 years certificate;Bachelor's degree;Postbaccalaureate certificate;Master's degree;Doctor's degree - research/scholarship;Doctor's degree - profes",,City: Large,Yes,nces.ed.gov
233614.186099999,901103.524300002,78,"4-year, Private not-for-profit",Massachusetts Institute of Technology,,77 Massachusetts Avenue,Cambridge,02139,4307,CAMBRIDGE,(617) 253-1000,http://web.mit.edu,166683,PRI,Research University,"B, M, D","Bachelor's degree;Master's degree;Doctor's degree - research/scholarship",,City: Midsize,Yes,nces.ed.gov
236694.2764,901466.738000002,79,"2-year, Private not-for-profit",North Bennet Street School,,150 North Street,Boston,02109,,BOSTON,(617) 227-0155,http://www.nbss.org,167297,PRI,Technical Institute,C,"One but less than two years certificate;Two but less than 4 years certificate",Furniture Design and Manufacturing,City: Large,No,nces.ed.gov
219763.943300001,901723.6873,80,"4-year, Private not-for-profit",Brandeis University,,415 South Street,Waltham,02454,9110,WALTHAM,(781) 736-2000,http://www.brandeis.edu,165015,PRI,Research University,"B, M, PMC, D","Bachelor's degree;Master's degree;Post-master's certificate;Doctor's degree - research/scholarship",,City: Small,Yes,nces.ed.gov
231072.254799999,901833.8924,81,"4-year, Private not-for-profit",Harvard University,Business School,117 Western Ave/Soldiers Field,Boston,02163,,BOSTON,(617) 495-6128,http://www.hbs.edu,166027,PRI,Research University,"A, B, PBC, M, PMC, D","Less than one year certificate;Associate's degree;Bachelor's degree;Postbaccalaureate certificate;Master's degree;Post-master's certificate;Doctor's degree - research/scholarship;Doctor's degree - professional practice",,City: Midsize,Yes,IN-WEBSITE
222158.072800003,901877.662599999,82,"< 2-year, Private for-profit",NV My Hair Academy,,296 Newton Street,Waltham,02453,,WALTHAM,(617) 834-3333,https://www.facebook.com/nvmyhairacademy/,,PRI,Private Vocational School,C,,Cosmetology,City: Small,No,mass.gov
194497.501599997,901927.844300002,83,"< 2-year, Public",Assabet After Dark,,215 Fitchburg Street,Marlborough,01752,,MARLBOROUGH,(508) 263-9651,http://www.assabetafterdark.com/,164535,PUB,Adult Education,C,One but less than two years certificate,Licensed Practical/Vocational Nurse Training,Suburb: Large,No,nces.ed.gov
235167.2289,903520.524700001,84,"4-year, Private not-for-profit",Cambridge College,Main Campus,500 Rutherford Avenue,Boston,02129,,BOSTON,(800) 877-4723,http://www.cambridgecollege.edu,165167,PRI,Private College,"C, B, PBC, M, PMC, D","Less than one year certificate;Associate's degree;Bachelor's degree;Postbaccalaureate certificate;Master's degree;Post-master's certificate;Doctor's degree - research/scholarship",,City: Large,No,nces.ed.gov
228801.170400001,939232.055,85,"4-year, Private not-for-profit",Cambridge College,Lawrence,280 Merrimack Street,Lawrence,01843,,LAWRENCE,1 (800) 877-4723,https://lawrence.cambridgecollege.edu/,165167,PRI,Private College,"C, B, PBC, M, PMC, D","Less than one year certificate;Associate's degree;Bachelor's degree;Postbaccalaureate certificate;Master's degree;Post-master's certificate;Doctor's degree - research/scholarship",Education,City: Midsize,No,nces.ed.gov
235359.968400002,902255.557599999,86,"4-year, Private not-for-profit",Hult International Business School,,1 Education Street,Cambridge,02141,,CAMBRIDGE,(617) 746-1990,http://www.hult.edu,164368,PRI,Business School,"B, M","Bachelor's degree;Master's degree",Business,City: Midsize,Yes,nces.ed.gov
231132.1017,902344.898200002,87,"4-year, Private not-for-profit",Harvard University,School of Government,"79 JFK Street
",Cambridge,02138,,CAMBRIDGE,(617) 495-1100,http://www.ksg.harvard.edu,166027,PRI,Research University,"A, B, PBC, M, PMC, D","Less than one year certificate;Associate's degree;Bachelor's degree;Postbaccalaureate certificate;Master's degree;Post-master's certificate;Doctor's degree - research/scholarship;Doctor's degree - professional practice",,City: Midsize,Yes,IN-WEBSITE
116086.43,902604.770100001,88,"4-year, Private not-for-profit",Amherst College,,220 South Pleasant Street,Amherst,01002,5000,AMHERST,(413) 542-2000,http://www.amherst.edu,164465,PRI,Liberal Arts College,B,Bachelor's degree,,Suburb: Large,Yes,nces.ed.gov
236739.374200001,902811.9109,89,"4-year, Private not-for-profit",MGH Institute of Health Professions,,36 1st Avenue,Boston,02129,,BOSTON,(617) 726-3140,http://www.mghihp.edu,166869,PRI,Medical School,"B, M, PMC, D","Bachelor's degree;Master's degree;Post-master's certificate;Doctor's degree - research/scholarship;Doctor's degree - professional practice;Doctor's degree - other",,City: Large,No,nces.ed.gov
190377.8948,879167.535100002,90,"< 2-year, Public",Blackstone Valley Vocational Regional School Post-Secondary Nursing Program,,65 Pleasant Street,Upton,01568,,UPTON,(508) 529-2403,https://www.valleytech.k12.ma.us/domain/196,457615,PUB,Medical Program,C,One but less than two years certificate,Licensed Practical/Vocational Nurse Training,Suburb: Large,No,nces.ed.gov
235282.908699997,879610.713500001,91,"< 2-year, Private for-profit",Porter And Chester Institute,Canton,5 Campanelli Circle,Canton,02021,1400,CANTON,(781) 830-0350,https://www.porterchester.com,13017406,PRI,Technical Institute,C,One but less than two years certificate,,Suburb: Large,No,mass.gov
225466.580499999,881218.7766,92,"2-year, Private for-profit",FINE Mortuary College,,150 Kerry Place,Norwood,02090,,NORWOOD,(781) 461-9080,http://www.fmc.edu,436599,PRI,Private Occupational Program,A,Associate's degree,Mortuary Science,Suburb: Large,No,nces.ed.gov
225357.005599998,881237.5669,93,"< 2-year, Private for-profit",Martin Electrical School,,130 Kerry Place,Norwood,02062,,NORWOOD,(781) 769-2376,http://martinelectricalschool.org/,,PRI,Private Occupational Program,C,,Electrician,Suburb: Small,No,mass.gov
232702.464199997,881375.030900002,94,"< 2-year, Public",Blue Hills Regional Technical School Practical Nursing Program,,800 Randolph Street,Canton,02021,,CANTON,(781) 828-5800,https://www.bluehills.org/practical-nursing/overview,243799,PUB,Medical Program,C,One but less than two years certificate,Licensed Practical/Vocational Nurse Training,Suburb: Large,No,nces.ed.gov
232988.300499998,881543.101,95,"2-year, Public",Massasoit Community College,Canton,900 Randolph Street,Canton,02021,1372,CANTON,(508) 588-9100,http://www.massasoit.mass.edu,166823,PUB,Community College,"C, A","Less than one year certificate;One but less than two years certificate;Associate's degree",,Suburb: Large,No,nces.ed.gov
112294.141800001,882261.590399999,96,"< 2-year, Private for-profit",Porter And Chester Institute,Chicopee,1984 Westover Road,Chicopee,01022,2480,CHICOPEE,(413) 459-9760,https://www.porterchester.com,,PRI,Technical Institute,C,One but less than two years certificate,,Suburb: Large,No,mass.gov
228549.448299997,883168.099399999,97,"< 2-year, Private for-profit",Peterson School,Westwood,350 University Avenue,Westwood,02090,,WESTWOOD,(781) 320-3292,https://www.petersonschool.com/,,PRI,Private Occupational Program,C,,Electric/Plumbing/Facilities,Suburb: Small,No,mass.gov
104869.103100002,883360.060699999,98,"2-year, Public",Holyoke Community College,,303 Homestead Avenue,Holyoke,01040,,HOLYOKE,(413) 538-7000,http://www.hcc.edu,166133,PUB,Community College,"C, A","Less than one year certificate;One but less than two years certificate;Associate's degree",,Suburb: Large,No,nces.ed.gov
112597.3693,872943.8279,99,"4-year, Private not-for-profit","Springfield College-Regional, Online, and Continuing Education",,263 Alden Street,Springfield,01109,,SPRINGFIELD,(413) 748-3000,https://springfield.edu/regional-and-online,475273,PRI,Adult Education,"B, M","Bachelor's degree;Master's degree",Human Services,City: Midsize,No,nces.ed.gov
223041.977200001,904292.363699999,100,"4-year, Private not-for-profit",Bentley University,,175 Forest Street,Waltham,02452,4705,WALTHAM,(781) 891-2000,http://www.bentley.edu,164739,PRI,Business School,"C, A, B, PBC, M, PMC, D","Less than one year certificate;Bachelor's degree;Postbaccalaureate certificate;Master's degree;Post-master's certificate;Doctor's degree - research/scholarship",Business,City: Small,Yes,nces.ed.gov
239308.942000002,884212.699900001,101,"< 2-year, Private for-profit",Toni & Guy Hairdressing Academy,Braintree,727A Granite Street,Braintree,02184,,BRAINTREE,(781) 428-3099,https://braintree.toniguy.edu/,434344,PRI,Private Vocational School,C,One but less than two years certificate,Cosmetology,Suburb: Midsize,No,mass.gov
107705.112800002,884559.576900002,102,"2-year, Private not-for-profit",Bard College - Holyoke Microcollege,,247 Cabot Street ,Holyoke,01040,3927,HOLYOKE,(413) 532-2900,http://www.carecenterholyoke.org/academics/care-center-college/clemente-course/,18908801,PRI,Adult Education,A,Associate's degree,,Suburb: Large,No,nces.ed.gov
44747.9619000033,885965.765900001,103,"4-year, primarily associate's, Private not-for-profit",Bard College at Simon's Rock,,84 Alford Road,Great Barrington,01230,1990,GREAT BARRINGTON,(413) 528-0771,http://www.simons-rock.edu,167792,PRI,Liberal Arts College,"A, B","Associate's degree;Bachelor's degree",,Town: Distant,Yes,nces.ed.gov
174556.008000001,887499.475699998,104,"4-year, Private not-for-profit",College of the Holy Cross,,1 College Street,Worcester,01610,2395,WORCESTER,(508) 793-2011,http://www.holycross.edu,166124,PRI,Liberal Arts College,B,Bachelor's degree,,City: Midsize,Yes,nces.ed.gov
231797.909199998,887890.932100002,105,"4-year, Private not-for-profit",Curry College,,1071 Blue Hill Avenue,Milton,02186,,MILTON,(617) 333-2210,http://www.curry.edu,165529,PRI,Liberal Arts College,"B, M, PMC","Bachelor's degree;Master's degree;Post-master's certificate",Medical Program,Suburb: Large,Yes,nces.ed.gov
205279.275799997,887961.666000001,106,"2-year, Public",Massachusetts Bay Community College,Ashland - Auto Tech Center,250 Eliot Street,Ashland,01721,2389,ASHLAND,(781) 239-3030,http://www.massbay.edu,166647,PUB,Community College,"C, A","Less than one year certificate;One but less than two years certificate;Associate's degree",,Suburb: Large,No,nces.ed.gov
185391.4542,888431.8409,107,"4-year, Private not-for-profit",Tufts University,School of Veterinary Medicine,200 Westboro Road,North Grafton,01536,,GRAFTON,(508) 839-7920,http://vet.tufts.edu/,168148,PRI,Research University,"C, B, PBC, M, PMC, D","Less than one year certificate;Bachelor's degree;Postbaccalaureate certificate;Master's degree;Post-master's certificate;Doctor's degree - research/scholarship;Doctor's degree - professional practice",,Suburb: Large,Yes,nces.ed.gov
241117.620800003,888695.049400002,108,"< 2-year, Private for-profit",Massachusetts School of Barbering,,58 General James C. McConville Way,Quincy,02169,,QUINCY,(617) 770-4444,http://www.massschoolofbarbering.com,166805,PRI,Private Vocational School,C,One but less than two years certificate,Barbering/Barber,Suburb: Large,No,nces.ed.gov
227298.584399998,898333.067400001,109,"4-year, Private not-for-profit",Boston College,Main Campus,140 Commonwealth Avenue,Chestnut Hill,02467,,NEWTON,(617) 552-8000,http://www.bc.edu,164924,PRI,Research University,"C, B, PBC, M, PMC, D","Less than one year certificate;Bachelor's degree;Postbaccalaureate certificate;Master's degree;Post-master's certificate;Doctor's degree - research/scholarship;Doctor's degree - professional practice",,City: Small,Yes,nces.ed.gov
232721.399400003,898388.439100001,110,"4-year, Private not-for-profit",Harvard University,School of Public Health,677 Huntington Ave,Boston,02115,,BOSTON,(617) 432-1031,http://www.hsph.harvard.edu/,166027,PRI,Research University,"A, B, PBC, M, PMC, D","Less than one year certificate;Associate's degree;Bachelor's degree;Postbaccalaureate certificate;Master's degree;Post-master's certificate;Doctor's degree - research/scholarship;Doctor's degree - professional practice",,City: Midsize,Yes,IN-WEBSITE
232625.444200002,898417.510899998,111,"4-year, Private not-for-profit",Harvard University,Medical School,25 Shattuck Street,Boston,02115,6092,BOSTON,(617) 432-1000,http://www.hms.harvard.edu,166027,PRI,Research University,"A, B, PBC, M, PMC, D","Less than one year certificate;Associate's degree;Bachelor's degree;Postbaccalaureate certificate;Master's degree;Post-master's certificate;Doctor's degree - research/scholarship;Doctor's degree - professional practice",,City: Midsize,Yes,IN-WEBSITE
235234.0361,898512.845699999,112,"4-year, Private not-for-profit",Boston University Chobanian & Avedisian School of Medicine,Medical Campus,72 E Concord Street,Boston,02118,,BOSTON,(617) 638-5300,http://www.bumc.bu.edu/busm/,164988,PRI,Medical School,"C, B, PBC, M, PMC, D","Less than one year certificate;One but less than two years certificate;Two but less than 4 years certificate;Bachelor's degree;Postbaccalaureate certificate;Master's degree;Post-master's certificate;Doctor's degree - research/scholarship;Doctor's degree -",,City: Large,Yes,nces.ed.gov
232871.654200003,898542.2709,113,"4-year, Private not-for-profit",Massachusetts College of Pharmacy and Health Science,Boston,179 Longwood Avenue,Boston,02115,,BOSTON,(617) 879-5964,http://www.mcphs.edu,166656,PRI,Medical School,"C, B, PBC, M, PMC, D","Less than one year certificate;One but less than two years certificate;Bachelor's degree;Postbaccalaureate certificate;Master's degree;Post-master's certificate;Doctor's degree - research/scholarship;Doctor's degree - professional practice;Doctor's degree",Pharmacy/Health Science,City: Large,Yes,nces.ed.gov
233065.724200003,898554.920899998,114,"4-year, Public",Massachusetts College of Art and Design,,621 Huntington Avenue,Boston,02115,,BOSTON,(617) 879-7000,http://www.massart.edu,166674,PUB,State University,"C, B, PBC, M","Less than one year certificate;One but less than two years certificate;Bachelor's degree;Postbaccalaureate certificate;Master's degree",Visual Art,City: Large,Yes,nces.ed.gov
233355.394199997,898564.710999999,115,"4-year, Private not-for-profit",Wentworth Institute of Technology,,550 Huntington Avenue,Boston,02115,,BOSTON,(617) 442-9010,http://www.wit.edu,168227,PRI,Technical College,"C, A, B, M","Less than one year certificate;Associate's degree;Bachelor's degree;Master's degree",Engineering,City: Large,Yes,nces.ed.gov
233243.468000002,898754.395500001,116,"4-year, Private not-for-profit",School of the Museum of Fine Arts,,230 The Fenway,Boston,02115,,BOSTON,(617) 267-6100,https://smfa.tufts.edu/,168148,PRI,Visual Arts College,"B, M","Less than one year certificate;Bachelor's degree;Postbaccalaureate certificate;Master's degree;Post-master's certificate;Doctor's degree - research/scholarship;Doctor's degree - professional practice",Visual Arts,City: Large,No,nces.ed.gov
230235.261100002,898807.500100002,117,"4-year, Private not-for-profit",Boston Graduate School of Psychoanalysis Inc,,1581 Beacon Street,Brookline,02446,,BROOKLINE,(617) 277-3915,http://www.bgsp.edu,164915,PRI,Graduate Medical Program,"M, PMC, D","Master's degree;Post-master's certificate;Doctor's degree - professional practice;Doctor's degree - other",Psychoanalysis,Suburb: Large,No,nces.ed.gov
215576.025600001,898808.188499998,118,"4-year, Private not-for-profit",Pope St John XXIII National Seminary,,558 South Avenue,Weston,02493,,WESTON,(781) 899-5500,http://www.psjs.edu,167464,PRI,Divinity School,M,Master's degree,Catholic Seminary,Suburb: Large,Yes,nces.ed.gov
232974.444200002,898837.640900001,119,"4-year, Private not-for-profit",Simmons University,Main Campus,300 The Fenway,Boston,02115,5898,BOSTON,(617) 521-2000,http://www.simmons.edu,167783,PRI,"Women's Liberal Arts College, Coed Graduate School","B, PBC, M, PMC, D","Bachelor's degree;Master's degree;Post-master's certificate;Doctor's degree - research/scholarship;Doctor's degree - professional practice",,City: Large,Yes,nces.ed.gov
233917.157499999,898844.2566,120,"4-year, Private not-for-profit",Northeastern University Professional Programs,Professional Advancement,360 Huntington Avenue,Boston,02115,,BOSTON,(617) 373-2000,https://www.northeastern.edu/pan/,482705,PRI,Private University,"C, A, B, PBC, M, PMC, D","Less than one year certificate;One but less than two years certificate;Bachelor's degree;Postbaccalaureate certificate;Master's degree;Post-master's certificate;Doctor's degree - professional practice;Doctor's degree - other",,City: Large,Yes,nces.ed.gov
233889.404200003,898910.310899999,121,"4-year, Private not-for-profit",Northeastern University,Main Campus,360 Huntington Avenue,Boston,02115,,BOSTON,(617) 373-2000,http://www.northeastern.edu,167358,PRI,Research University,"B, M, PMC, D","Bachelor's degree;Master's degree;Post-master's certificate;Doctor's degree - research/scholarship;Doctor's degree - professional practice;Doctor's degree - other",,City: Large,Yes,nces.ed.gov
234082.444200002,899023.070900001,122,"4-year, Private not-for-profit",The New England Conservatory of Music,,290 Huntington Avenue,Boston,02115,,BOSTON,(617) 585-1100,https://necmusic.edu/,167057,PRI,Performing Arts College,"C, B, PBC, M, D","Less than one year certificate;Two but less than 4 years certificate;Bachelor's degree;Postbaccalaureate certificate;Master's degree;Doctor's degree - research/scholarship",Music,City: Large,Yes,nces.ed.gov
232762.044200003,899036.210900001,123,"4-year, Private not-for-profit",Emmanuel College,,400 The Fenway,Boston,02115,,BOSTON,(617) 735-9715,http://www.emmanuel.edu,165671,PRI,Liberal Arts College,"B, PBC, M, PMC","Bachelor's degree;Postbaccalaureate certificate;Master's degree;Post-master's certificate",,City: Large,Yes,nces.ed.gov
241061.202699997,888797.4023,124,"< 2-year, Private for-profit",Ali May Academy,,1459 Hancock Street,Quincy,02169,,QUINCY,(617) 786-8900,https://www.facebook.com/alimayquincy/,,PRI,Private Vocational School,C,,Cosmetology,Suburb: Large,No,mass.gov
173269.346900001,889032.370099999,125,"4-year, Private not-for-profit",Clark University,,950 Main Street,Worcester,01610,1477,WORCESTER,(508) 793-7711,http://www.clarku.edu,165334,PRI,Research University,"C, B, PBC, M, PMC, D","Less than one year certificate;Bachelor's degree;Postbaccalaureate certificate;Master's degree;Post-master's certificate;Doctor's degree - research/scholarship",,City: Midsize,Yes,nces.ed.gov
240971.756200001,889230.843199998,126,"4-year, primarily associate's, Public",Quincy College,,1250 Hancock Street,Quincy,02169,,QUINCY,(800) 698-1700,http://www.quincycollege.edu,167525,PUB,Municipally Affiliated College,"C, A","Less than one year certificate;One but less than two years certificate;Associate's degree;Bachelor's degree",,Suburb: Large,No,nces.ed.gov
175334.607299998,889261.598000001,127,"< 2-year, Private for-profit",JK Nails Academy,,68 Millbury Street ,Worcester,01610,,WORCESTER,(508) 753-6500,https://www.facebook.com/jknailsacademy/,,PRI,Private Vocational School,C,,Cosmetology,City: Midsize,No,mass.gov
232176.5242,889334.6609,128,"4-year, Private not-for-profit",Boston Baptist College,,950 Metropolitan Avenue,Boston,02136,,BOSTON,(617) 364-3510,http://www.boston.edu,164614,PRI,Divinity School,"C, A, B","One but less than two years certificate;Associate's degree;Bachelor's degree",Biblical Studies,City: Large,Yes,nces.ed.gov
234840.514200002,908633.8609,129,"< 2-year, Private for-profit",Empire Beauty School,Malden,347 Pleasant Street,Malden,02148,,MALDEN,(781) 397-7400,http://www.empire.edu,407179,PRI,Private Vocational School,C,One but less than two years certificate,"Cosmetology/Cosmetologist, General",Suburb: Large,No,nces.ed.gov
235516.804799996,908806.203499999,130,"< 2-year, Private for-profit",New England Hair Academy,,110 Florence Street,Malden,02148,,MALDEN,(781) 324-6799,http://www.newenglandhairacademy.com,373678,PRI,Private Vocational School,C,"Less than one year certificate;One but less than two years certificate","Cosmetology/Cosmetologist, General",Suburb: Large,No,nces.ed.gov
209288.206,912415.889400002,131,"2-year, Private for-profit",National Aviation Academy of New England,Concord,130 Baker Ave Extension,Concord,01742,,CONCORD,(781) 274-8448,http://www.naa.edu,165635,PRI,Technical Institute,C,Two but less than 4 years certificate,Airframe Mechanics and Aircraft Maintenance Technology/Technician,Suburb: Large,No,nces.ed.gov
245720.953000002,912392.030200001,132,"2-year, Public",North Shore Community College,Lynn Campus,300 Broad Street,Lynn,01901,,LYNN,(781) 593-6722,http://www.northshore.edu,167312,PUB,Community College,"C, A","Less than one year certificate;One but less than two years certificate;Associate's degree",,Suburb: Large,No,nces.ed.gov
55516.9893999994,912465.048999999,133,"< 2-year, Private for-profit",Mildred Elley,Pittsfield,100 West Street,Pittsfield,01201,,PITTSFIELD,(413) 499-8618,http://www.mildred-elley.edu,425986,PRI,Technical Institute,C,One but less than two years certificate,,City: Small,No,nces.ed.gov
50710.7441999987,913724.420899998,134,"2-year, Public",Berkshire Community College,,1350 West Street,Pittsfield,01201,5786,PITTSFIELD,(413) 499-4660,http://www.berkshirecc.edu,164775,PUB,Community College,"C, A","Less than one year certificate;One but less than two years certificate;Associate's degree",,Rural: Fringe,No,nces.ed.gov
225433.969499998,914295.8871,135,"4-year, Private not-for-profit",Northeastern University,Burlington,145 South Bedford Street,Burlington,01803,,BURLINGTON,(781) 238-8400,https://www.burlington.northeastern.edu/,167358,PRI,Research University,"B, M, PMC, D","Bachelor's degree;Master's degree;Post-master's certificate;Doctor's degree - research/scholarship;Doctor's degree - professional practice;Doctor's degree - other",,City: Large,Yes,nces.ed.gov
228725.356200002,914341.336199999,136,"< 2-year, Private for-profit",Peterson School,Woburn,25 Montvale Road,Woburn,01801,,WOBURN,(781) 938-5656,https://www.petersonschool.com/,,PRI,Private Occupational Program,C,,Electric/Plumbing/Facilities,Suburb: Large,No,mass.gov
231712.348399997,914572.9419,137,"< 2-year, Private for-profit",Gould Construction Institute,,"100 Unicorn Park Drive, Suite 2",Woburn,01801,,WOBURN,(781) 270-9990,http://www.gwgci.org/,,PRI,Private Occupational Program,C,,Construction,Suburb: Large,No,mass.gov
232492.842500001,899048.8651,138,"4-year, Private not-for-profit",Simmons University,Residence Campus,321 Brookline Avenue,Boston,02215,,BOSTON,(617) 521-2000,http://www.simmons.edu,167783,PRI,"Women's Liberal Arts College, Coed Graduate School","B, PBC, M, PMC, D","Bachelor's degree;Master's degree;Post-master's certificate;Doctor's degree - research/scholarship;Doctor's degree - professional practice",,City: Large,Yes,nces.ed.gov
225219.1998,899080.524,139,"4-year, Private not-for-profit",Boston College,Newton Campus,885 Centre Street,Newton,02459,,NEWTON,(617) 552-8000,http://www.bc.edu/,164924,PRI,Research University,"C, B, PBC, M, PMC, D","Less than one year certificate;Bachelor's degree;Postbaccalaureate certificate;Master's degree;Post-master's certificate;Doctor's degree - research/scholarship;Doctor's degree - professional practice",,City: Small,Yes,nces.ed.gov
221288.904200003,899204.0209,140,"4-year, Private not-for-profit",Lasell University,,1844 Commonwealth Avenue,Newton,02466,,NEWTON,(617) 243-2000,http://www.lasell.edu,166391,PRI,Liberal Arts College,"B, M","Bachelor's degree;Postbaccalaureate certificate;Master's degree",Business Program,City: Small,Yes,nces.ed.gov
227802.351099998,899328.6413,141,"4-year, Private not-for-profit",Boston College,Brighton Campus,129 Lake Street,Brighton,02135,,BOSTON,(617) 552-8000,http://www.bc.edu/,164924,PRI,Research University,"C, B, PBC, M, PMC, D","Less than one year certificate;Bachelor's degree;Postbaccalaureate certificate;Master's degree;Post-master's certificate;Doctor's degree - research/scholarship;Doctor's degree - professional practice",,City: Small,Yes,nces.ed.gov
227795.5942,899370.2766,142,"4-year, Private not-for-profit",Saint John's Seminary,,127 Lake Street,Brighton,02135,,BOSTON,(617) 254-2610,http://www.sjs.edu,167677,PRI,Divinity School,"B, M","Bachelor's degree;Master's degree",Catholic Seminary,City: Large,Yes,nces.ed.gov
235420.3442,899588.320900001,143,"4-year, primarily associate's, Private not-for-profit",Benjamin Franklin Cummings Institute of Technology,,41 Berkeley Street,Boston,02116,,BOSTON,(617) 423-4630,http://www.bfit.edu,165884,PRI,Technical College,"C, A, B","Less than one year certificate;Associate's degree;Bachelor's degree",,City: Large,No,nces.ed.gov
233782.3992,899603.183800001,144,"4-year, Private not-for-profit",The Boston Conservatory at Berklee,,8 The Fenway,Boston,02215,,BOSTON,(617) 536-6340,https://bostonconservatory.berklee.edu/,164748,PRI,Performing Arts College,"B, M","One but less than two years certificate;Two but less than 4 years certificate;Bachelor's degree;Postbaccalaureate certificate;Master's degree;Post-master's certificate",Music,City: Large,Yes,nces.ed.gov
233833.895000003,899644.665100001,145,"4-year, Private not-for-profit",Berklee College of Music,,1140 Boylston Street,Boston,02215,,BOSTON,(617) 266-1400,http://www.berklee.edu,164748,PRI,Performing Arts College,"C, B, PBC, M, PMC","One but less than two years certificate;Two but less than 4 years certificate;Bachelor's degree;Postbaccalaureate certificate;Master's degree;Post-master's certificate",Music,City: Large,Yes,nces.ed.gov
234129.401699997,899858.975900002,146,"4-year, Private not-for-profit",Boston Architectural College,,320 Newbury Street,Boston,02115,,BOSTON,(617) 262-5000,http://www.the-bac.edu,164872,PRI,Private College,"C, B, M","Less than one year certificate;Bachelor's degree;Master's degree",Architecture,City: Large,No,nces.ed.gov
232983.739100002,899977.282299999,147,"4-year, Private not-for-profit",Boston University,Charles River Campus,1 Silber Way,Boston,02215,,BOSTON,(617) 353-2000,http://www.bu.edu,164988,PRI,Research University,"C, B, PBC, M, PMC, D","Less than one year certificate;One but less than two years certificate;Two but less than 4 years certificate;Bachelor's degree;Postbaccalaureate certificate;Master's degree;Post-master's certificate;Doctor's degree - research/scholarship;Doctor's degree -",,City: Large,Yes,nces.ed.gov
236057.1316,900054.524799999,148,"4-year, Private not-for-profit",Tufts University,Boston Campus,145 Harrison Avenue,Boston,02111,,BOSTON,(617) 636-7000,http://medicine.tufts.edu/,168148,PRI,Research University,"C, B, PBC, M, PMC, D","Less than one year certificate;Bachelor's degree;Postbaccalaureate certificate;Master's degree;Post-master's certificate;Doctor's degree - research/scholarship;Doctor's degree - professional practice",,Suburb: Large,Yes,nces.ed.gov
215608.725599997,900100.778200001,149,"4-year, Private not-for-profit",Regis College,,235 Wellesley Street,Weston,02493,1571,WESTON,(781) 768-7000,http://www.regiscollege.edu,167598,PRI,Liberal Arts College,"A, B, PBC, M, PMC, D","Associate's degree;Bachelor's degree;Postbaccalaureate certificate;Master's degree;Post-master's certificate;Doctor's degree - professional practice",,Suburb: Large,Yes,nces.ed.gov
178292.424999997,894355.395599999,150,"< 2-year, Private for-profit",Peterson School,Worcester,705 Plantation Street,Worcester,01605,,WORCESTER,(774) 823-3047,https://www.petersonschool.com/,,PRI,Private Occupational Program,C,,Electric/Plumbing/Facilities,City: Midsize,No,mass.gov
235724.590000004,900127.8926,151,"4-year, Private not-for-profit",New England Law Boston,,154 Stuart Street,Boston,02116,,BOSTON,(617) 451-0010,http://www.nesl.edu,167215,PRI,Law School,D,Doctor's degree - professional practice,Law,City: Large,No,nces.ed.gov
234042.970899999,900232.6666,152,"4-year, Private not-for-profit",New England College of Optometry,,424 Beacon Street,Boston,02115,,BOSTON,(617) 266-2030,http://www.neco.edu,167093,PRI,Graduate Medical Program,"M, PMC, D","Master's degree;Post-master's certificate;Doctor's degree - professional practice",Optometry,City: Large,No,nces.ed.gov
235816.684199996,900253.310899999,153,"4-year, Private not-for-profit",Emerson College,,120 Boylston Street,Boston,02116,4624,BOSTON,(617) 824-8500,http://www.emerson.edu,165662,PRI,Private College,"B, M","Bachelor's degree;Master's degree","Communications, Performing Arts",City: Large,Yes,nces.ed.gov
235905.784199998,900358.230900001,154,"2-year, Private not-for-profit",Urban College of Boston,,2 Boylston Street,Boston,02116,,BOSTON,(617) 292-4723,http://www.urbancollege.edu,429128,PRI,Adult Education,"C, A","Less than one year certificate;Associate's degree",,City: Large,No,nces.ed.gov
177902.563000001,926387.470199998,155,"< 2-year, Private for-profit",Alexander Academy,,55 Massachusetts Avenue ,Lunenburg,01462,,LUNENBURG,(978) 345-0011,http://www.alexanderacademy.com/,476735,PRI,Private Vocational School,C,One but less than two years certificate,Cosmetology/Barbering,Suburb: Midsize,No,nces.ed.gov
176325.012699999,926669.734299999,156,"4-year, Public",Fitchburg State University,,160 Pearl Street,Fitchburg,01420,2697,FITCHBURG,(978) 345-2151,http://www.fitchburgstate.edu,165820,PUB,State University,"C, B, PBC, M, PMC","Less than one year certificate;One but less than two years certificate;Bachelor's degree;Postbaccalaureate certificate;Master's degree;Post-master's certificate",Education,Suburb: Midsize,Yes,nces.ed.gov
243607.614200003,926747.2709,157,"2-year, Public",North Shore Community College,Danvers,1 Ferncroft Road,Danvers,01923,,DANVERS,(978) 762-4000,http://www.northshore.edu,167312,PUB,Community College,"C, A","Less than one year certificate;One but less than two years certificate;Associate's degree",,Suburb: Large,No,nces.ed.gov
255691.630000003,926880.297899999,158,"4-year, Private not-for-profit",Gordon College,,255 Grapevine Road,Wenham,01984,,WENHAM,(978) 927-2300,http://www.gordon.edu,165936,PRI,Liberal Arts College,"B, M, PMC","Bachelor's degree;Master's degree;Post-master's certificate",,Suburb: Large,Yes,nces.ed.gov
160282.044200003,927083.390900001,159,"2-year, Public",Mount Wachusett Community College,,444 Green Street,Gardner,01440,1000,GARDNER,(978) 632-6600,http://www.mwcc.edu,166957,PUB,Community College,"C, A","Less than one year certificate;One but less than two years certificate;Associate's degree",,Rural: Fringe,No,nces.ed.gov
222910.986400001,927471.929099999,160,"< 2-year, Private for-profit","Electrology Institute of New England, Inc",,1501 Main Street,Tewksbury,01876,,TEWKSBURY,(800) 548-6339,http://electrologyinstitute.com/,410964,PRI,Private Vocational School,C,"Less than one year certificate;One but less than two years certificate",Electrolysis/Electrology and Electrolysis Technician,Suburb: Large,No,nces.ed.gov
107177.297700003,928280.747400001,161,"2-year, Public",Greenfield Community College,,1 College Drive,Greenfield,01301,,GREENFIELD,(413) 775-1000,http://www.gcc.mass.edu,165981,PUB,Community College,"C, A","Less than one year certificate;One but less than two years certificate;Associate's degree",,Town: Distant,No,nces.ed.gov
253737.364200003,929304.892299999,162,"4-year, Private not-for-profit",Gordon-Conwell Theological Seminary,South Hamilton,130 Essex Street,South Hamilton,01982,,HAMILTON,(978) 468-7111,http://www.gordonconwell.edu,165945,PRI,Divinity School,"PBC, M, D","Postbaccalaureate certificate;Master's degree;Doctor's degree",Evangelical Seminary,Suburb: Large,Yes,nces.ed.gov
215733.0942,932577.130899999,163,"< 2-year, Private for-profit",Lowell Academy Hairstyling Institute,,136 Central Street,Lowell,01852,,LOWELL,(978) 453-3235,http://www.lowellacademy.com,166498,PRI,Private Vocational School,C,One but less than two years certificate,"Cosmetology/Cosmetologist, General",Suburb: Large,No,nces.ed.gov
215860.100900002,932686.9626,164,"2-year, Public",Middlesex Community College,Lowell,33 Kearney Square,Lowell,01852,,LOWELL,(978) 656-3200,https://www.middlesex.mass.edu/,166887,PUB,Community College,"C, A","Less than one year certificate;One but less than two years certificate;Associate's degree",,Suburb: Large,No,nces.ed.gov
209360.820900001,933716.456300002,165,"< 2-year, Public",Greater Lowell Technical School Adult Education,,250 Pawtucket Boulevard,Tyngsboro,01879,,TYNGSBOROUGH,(978) 441-4870,https://www.gltech.org/domain/71,382416,PUB,Adult Education,C,One but less than two years certificate,"Practical Nursing, Vocational Nursing and Nursing Assistants, Other",Suburb: Large,No,nces.ed.gov
214353.928400002,933813.537300002,166,"4-year, Public",University of Massachusetts Lowell,Lowell,1 University Avenue,Lowell,01854,2894,LOWELL,(978) 934-4000,http://www.uml.edu,166513,PUB,University of Massachusetts,"C, A, B, PBC, M, PMC, D","Less than one year certificate;Associate's degree;Bachelor's degree;Postbaccalaureate certificate;Master's degree;Post-master's certificate;Doctor's degree - research/scholarship;Doctor's degree - professional practice",,Suburb: Large,Yes,nces.ed.gov
229546.021200001,934065.0359,167,"< 2-year, Private for-profit",David Nicholas International,,18 Park Street,Andover,01810,,ANDOVER,(617) 242-0177,https://www.dnimakeup.com/,,PRI,Private Vocational School,C,,Cosmetology,Suburb: Large,No,mass.gov
230796.080799997,935420.122699998,168,"4-year, Private not-for-profit",Merrimack College,,315 Turnpike Street,North Andover,01845,,NORTH ANDOVER,(978) 837-5000,http://www.merrimack.edu,166850,PRI,Liberal Arts College,"B, M, PMC","Less than one year certificate;Associate's degree;Bachelor's degree;Postbaccalaureate certificate;Master's degree;Post-master's certificate",Business Program,Suburb: Large,Yes,nces.ed.gov
68774.9993999973,936087.722399998,169,"< 2-year, Public",Charles H. McCann Technical School Adult Evening Classes,,70 Hodges Cross Road,North Adams,01247,,NORTH ADAMS,(413) 663-5383,https://www.mccanntech.org/educational-programs/adult-evening-courses,419095,PUB,Adult Education,C,One but less than two years certificate,Licensed Practical/Vocational Nurse Training,Rural: Fringe,No,nces.ed.gov
224618.854199998,936877.9109,170,"4-year, Private not-for-profit",Massachusetts School of Law,,500 Federal Street Woodland Park,Andover,01810,,ANDOVER,(978) 681-0800,http://www.mslaw.edu,369002,PRI,Law School,D,Doctor's degree - professional practice,Law,Suburb: Large,No,nces.ed.gov
230158.504799999,939731.651500002,171,"< 2-year, Private for-profit",Spa Tech Institute,North Andover,202 Sutton Street,North Andover,01845,,NORTH ANDOVER,(978) 620-5250,https://www.spatech.edu/,,PRI,Private Vocational School,C,Less than one year certificate,Aesthetician/Esthetician and Skin Care Specialist,Suburb: Large,No,IN-WEBSITE
227044.155199997,938920.783500001,172,"< 2-year, Private for-profit",VIP Beauty Academy,,100 Water Street,Lawrence,01841,,LAWRENCE,(978) 683-0407,https://vipbeautyacademy.org/,,PRI,Private Vocational School,C,,Cosmetology,Suburb: Midsize,No,mass.gov
68608.0451999977,939125.6096,173,"4-year, Public",Massachusetts College of Liberal Arts,,375 Church Street,North Adams,01247,4100,NORTH ADAMS,(413) 662-5000,http://www.mcla.edu,167288,PUB,State University,"C, B, PBC, M, PMC","Less than one year certificate;Bachelor's degree;Postbaccalaureate certificate;Master's degree;Post-master's certificate",,Town: Fringe,Yes,nces.ed.gov
251194.820600003,954858.348000001,174,"2-year, Public",Northern Essex Community College,Salisbury Satellite Location,80 Elm Street,Salisbury,01952,,SALISBURY,(978) 556-3000,http://www.necc.mass.edu/,167376,PUB,Community College,"C, A","Less than one year certificate;One but less than two years certificate;Associate's degree",,Suburb: Large,No,nces.ed.gov
227244.758599997,939687.5013,175,"2-year, Public",Northern Essex Community College,Lawrence,45 Franklin Street,Lawrence,01840,,LAWRENCE,(978) 738-7000,http://www.necc.mass.edu,167376,PUB,Community College,"C, A","Less than one year certificate;One but less than two years certificate;Associate's degree",,Suburb: Large,No,nces.ed.gov
226475.641199999,940528.347399998,176,"< 2-year, Private for-profit",Lawrence Training School,,530 Broadway Street,Lawrence,01841,,LAWRENCE,(978) 794-0449,https://ltsacademyofcosmetology.com/,,PRI,Technical Institute,C,,Cosmetology,Suburb: Midsize,No,mass.gov
60504.3351999968,941633.828499999,177,"4-year, Private not-for-profit",Williams College,,880 Main Street,Williamstown,01267,,WILLIAMSTOWN,(413) 597-2211,http://www.williams.edu,168342,PRI,Liberal Arts College,"B, M","Bachelor's degree;Master's degree",,Town: Fringe,Yes,nces.ed.gov
231412.971600004,942351.056899998,178,"< 2-year, Private for-profit",New England Tractor Trailer Training School of Massachusetts,North Andover,1600 Osgood Street,North Andover,01845,1048,NORTH ANDOVER,(978) 965-2969,https://nettts.com/,468963,PRI,Technical Institute,C,"Less than one year certificate;One but less than two years certificate",Truck and Bus Driver/Commercial Vehicle Operator and Instructor,Suburb: Large,No,nces.ed.gov
234436.510600001,946139.1065,179,"4-year, Private not-for-profit",Northpoint Bible College,,320 South Main Street,Haverhill,01835,,HAVERHILL,(978) 478-3400,http://www.northpoint.edu/,217606,PRI,Divinity School,"C, A, B, M","One but less than two years certificate;Associate's degree;Bachelor's degree;Master's degree",Pentecostal Ministry,Suburb: Large,Yes,nces.ed.gov
237029.944200002,949638.277899999,180,"2-year, Public",Northern Essex Community College,Haverhill,100 Elliott Street,Haverhill,01830,,HAVERHILL,(978) 556-3000,http://www.necc.mass.edu,167376,PUB,Community College,"C, A","Less than one year certificate;One but less than two years certificate;Associate's degree",,Suburb: Large,No,nces.ed.gov
231210.581699997,902878.373399999,181,"4-year, Private not-for-profit",Harvard University,Main Campus,8 Garden Street/Radcliffe Yard,Cambridge,02138,,CAMBRIDGE,(617) 495-1000,http://www.harvard.edu,166027,PRI,Liberal Arts College,"A, B, PBC, M, PMC, D","Less than one year certificate;Associate's degree;Bachelor's degree;Postbaccalaureate certificate;Master's degree;Post-master's certificate;Doctor's degree - research/scholarship;Doctor's degree - professional practice",,City: Midsize,Yes,IN-WEBSITE
231794.304200001,902886.790899999,182,"4-year, Private not-for-profit",Harvard University,Graduate School of Design,48 Quincy Street,Cambridge,02138,,CAMBRIDGE,(617) 495-3880,http://www.gsd.harvard.edu,166027,PRI,Research University,"A, B, PBC, M, PMC, D","Less than one year certificate;Associate's degree;Bachelor's degree;Postbaccalaureate certificate;Master's degree;Post-master's certificate;Doctor's degree - research/scholarship;Doctor's degree - professional practice",,City: Midsize,Yes,IN-WEBSITE
235460.117200002,902864.0517,183,"2-year, Public",Bunker Hill Community College,Charlestown,250 New Rutherford Avenue,Boston,02129,2925,BOSTON,(617) 228-2000,http://www.bhcc.mass.edu,165112,PUB,Community College,"C, A","Less than one year certificate;Associate's degree",,City: Large,No,nces.ed.gov
231013.570500001,903182.1448,184,"4-year, Private not-for-profit",Longy School of Music of Bard College,,27 Garden Street,Cambridge,02138,,CAMBRIDGE,(617) 876-0956,https://longy.edu/,166489,PRI,Performing Arts College,"C, PBC, M, PMC","Two but less than 4 years certificate;Postbaccalaureate certificate;Master's degree;Post-master's certificate",Music,City: Midsize,No,nces.ed.gov
231390.415200002,903243.5984,185,"4-year, Private not-for-profit",Harvard University,Law School,1585 Massachusetts Avenue,Cambridge,02138,,CAMBRIDGE,(617) 496-8214,http://www.law.harvard.edu,166027,PRI,Research University,"A, B, PBC, M, PMC, D","Less than one year certificate;Associate's degree;Bachelor's degree;Postbaccalaureate certificate;Master's degree;Post-master's certificate;Doctor's degree - research/scholarship;Doctor's degree - professional practice",,City: Midsize,Yes,IN-WEBSITE
231516.828699999,903379.1296,186,"4-year, Private not-for-profit",Lesley University,,29 Everett Street,Cambridge,02138,2790,CAMBRIDGE,(617) 868-9600,http://www.lesley.edu,166452,PRI,Private University,"C, A, B, PBC, M, PMC, D","Associate's degree;Two but less than 4 years certificate;Bachelor's degree;Postbaccalaureate certificate;Master's degree;Post-master's certificate;Doctor's degree - research/scholarship",Education Program,City: Midsize,Yes,nces.ed.gov
239081.250799999,903416.787599999,187,"< 2-year, Private for-profit",East Boston Beauty Academy,,4 Neptune Road,Boston,02128,,BOSTON,(617) 569-2590,https://suffolkbeautygroup.com/,,PRI,Private Vocational School,C,,Cosmetology,City: Large,No,mass.gov
230634.224200003,903514.900899999,188,"4-year, Private not-for-profit",Harvard-Smithsonian,Center for Astrophysics,60 Garden Street,Cambridge,02138,,CAMBRIDGE,(617) 495-7461,http://cfa-www.harvard.edu,166027,PRI,Research University,"A, B, PBC, M, PMC, D","Less than one year certificate;Associate's degree;Bachelor's degree;Postbaccalaureate certificate;Master's degree;Post-master's certificate;Doctor's degree - research/scholarship;Doctor's degree - professional practice",,City: Midsize,Yes,nces.ed.gov
223159.2742,921938.990899999,189,"< 2-year, Public",Shawsheen Valley School of Practical Nursing,,100 Cook Street,Billerica,01821,,BILLERICA,(978) 667-2111,https://www.shawsheenpracticalnursing.com/,412535,PUB,Adult Education,C,One but less than two years certificate,Licensed Practical/Vocational Nurse Training,Suburb: Large,No,nces.ed.gov
251239.383400001,922369.2991,190,"4-year, Private not-for-profit",Montserrat College of Art,,23 Essex Street,Beverly,01915,,BEVERLY,(978) 922-8222,http://www.montserrat.edu,166911,PRI,Visual Arts College,B,Bachelor's degree,Visual Arts,Suburb: Large,Yes,nces.ed.gov
253929.425300002,922741.507399999,191,"4-year, Private not-for-profit",Endicott College,,376 Hale Street,Beverly,01915,,BEVERLY,(978) 927-0585,http://www.endicott.edu,165699,PRI,Liberal Arts College,"C, A, B, PBC, M, PMC, D","Less than one year certificate;Associate's degree;Bachelor's degree;Postbaccalaureate certificate;Master's degree;Post-master's certificate;Doctor's degree - research/scholarship",,Suburb: Large,Yes,nces.ed.gov
170371.124200001,923409.820900001,192,"< 2-year, Public",Montachusett Regional Vocational Technical School Practical Nursing Program,,1050 Westminster Street,Fitchburg,01420,,FITCHBURG,(978) 345-9200,https://www.montytech.net/domain/71,433040,PUB,Medical Program,C,One but less than two years certificate,Licensed Practical/Vocational Nurse Training,Suburb: Midsize,No,nces.ed.gov
115464.934199996,904448.5909,193,"4-year, Public",University of Massachusetts Amherst,Main Campus,181 Presidents Drive,Amherst,01003,9291,AMHERST,(413) 545-0111,http://www.umass.edu,166629,PUB,University of Massachusetts,"C, A, B, PBC, M, D","Less than one year certificate;Associate's degree;Bachelor's degree;Postbaccalaureate certificate;Master's degree;Post-master's certificate;Doctor's degree - research/scholarship;Doctor's degree - professional practice",,Suburb: Large,Yes,nces.ed.gov
234384.394199997,904589.810899999,194,"< 2-year, Private for-profit",Lincoln Technical Institute,Somerville,5 Middlesex Avenue,Somerville,02145,,SOMERVILLE,(617) 776-3500,https://www.lincolntech.edu/campus/somerville-ma,165556,PRI,Technical Institute,C,"Less than one year certificate;One but less than two years certificate",Medical/Clinical Assistant,Suburb: Large,No,nces.ed.gov
231416.401900001,906514.072700001,195,"4-year, Private not-for-profit",Tufts University,Medford/Somerville Campus,419 Boston Avenue,Medford,02155,,MEDFORD,(617) 628-5000,http://www.tufts.edu,168148,PRI,Research University,"C, B, PBC, M, PMC, D","Less than one year certificate;Bachelor's degree;Postbaccalaureate certificate;Master's degree;Post-master's certificate;Doctor's degree - research/scholarship;Doctor's degree - professional practice",,Suburb: Large,Yes,nces.ed.gov
236668.854800001,906346.1219,196,"< 2-year, Private for-profit",Flavia Leal Beauty School,Everett,20 Chelsea Street,Everett,02149,,EVERETT,(781) 995-4009,https://flavialeal.com/,,PRI,Private Vocational School,C,,Cosmetology,City: Small,No,mass.gov
230768.878300004,907208.771600001,197,"< 2-year, Private for-profit",Elizabeth Grady School of Esthetics and Massage Therapy,,222 Boston Avenue,Medford,02155,,MEDFORD,(781) 391-9380,http://www.elizabethgrady.com,362782,PRI,Private Vocational School,C,Less than one year certificate,Aesthetician/Esthetician and Skin Care Specialist,Suburb: Large,No,nces.ed.gov
248777.8345,907714.489799999,198,"4-year, Private not-for-profit",Northeastern University,Coastal Sustainability Institute,430 Nahant Road,Nahant,01908,,NAHANT,(781) 581-7370,https://csi.northeastern.edu/,167358,PRI,Research University,"B, M, PMC, D","Bachelor's degree;Master's degree;Post-master's certificate;Doctor's degree - research/scholarship;Doctor's degree - professional practice;Doctor's degree - other",,City: Large,Yes,nces.ed.gov
232004.0634,908484.315699998,199,"2-year, Private not-for-profit",Lawrence Memorial Hospital/Regis College School of Nursing,,170 Governors Avenue,Medford,02155,,MEDFORD,(781) 306-6600,http://www.lmregis.org,166407,PRI,Medical Program,A,Associate's degree,Licensed Practical/Vocational Nurse Training,Suburb: Large,No,nces.ed.gov
228315.144500002,914684.2152,200,"< 2-year, Private for-profit",Blessing Channels Nail Academy,,"76 Winn Street, #1C",Woburn,01801,,WOBURN,(781) 729-8868,https://www.bcnailschool.com/,,PRI,Private Vocational School,C,,Cosmetology,Suburb: Large,No,mass.gov
230826.562799998,914876.647399999,201,"< 2-year, Private for-profit",Woburn Electrical School,,14 Orange Street,Woburn,01801,,WOBURN,(781) 223-1924,http://woburnelectricalschool.com/,,PRI,Private Occupational Program,C,,Electrician,Suburb: Large,No,mass.gov
229828.684199996,915922.350900002,202,"< 2-year, Private for-profit",Catherine Hinds Institute of Esthetics,,300 Wildwood Avenue,Woburn,01801,,WOBURN,(781) 935-3344,http://www.catherinehinds.edu,165255,PRI,Private Vocational School,C,"Less than one year certificate;One but less than two years certificate",Master Aesthetician/Esthetician,Suburb: Large,No,nces.ed.gov
230629.012199998,916196.130199999,203,"< 2-year, Private for-profit",Millennium Training Institute,,600 West Cummings Park,Woburn,01801,,WOBURN,(888) 388-9981,https://www.millennium.edu/,451264,PRI,Technical Institute,C,Less than one year certificate,Accounting Technology/Technician and Bookkeeping,Suburb: Large,No,nces.ed.gov
230866.413199998,916502.824999999,204,"< 2-year, Private for-profit",Flavia Leal Beauty School,Woburn,36 Cummings Park,Woburn,01801,,WOBURN,(781) 995-4009,https://flavialeal.com/,,PRI,Private Vocational School,C,,Cosmetology,Suburb: Large,No,mass.gov
236141.932999998,917089.8266,205,"< 2-year, Private for-profit",Hair's How,,99 Preston Street,Wakefield,01880,,WAKEFIELD,(781) 224-4800,https://www.hairshowschool.com/,,PRI,Private Vocational School,C,,Cosmetology,Suburb: Small,No,mass.gov
250107.289399996,917187.0601,206,"4-year, Public",Salem State University,,352 Lafayette Street,Salem,01970,5353,SALEM,(978) 542-6000,http://www.salemstate.edu,167729,PUB,State University,"B, PBC, M, PMC","Bachelor's degree;Postbaccalaureate certificate;Master's degree;Post-master's certificate",,Suburb: Large,Yes,nces.ed.gov
105298.589599997,896562.166999999,207,"4-year, Private not-for-profit",Conway School of Landscape Design,Main Campus,88 Village Hill Road,Northampton,01060,,NORTHAMPTON,(413) 369-4044,http://www.csld.edu,165495,PRI,Graduate Landscape Program,M,Master's degree,Landscape Design,Suburb: Large,No,nces.ed.gov
218558.577699997,919363.394900002,208,"2-year, Public",Middlesex Community College,Bedford,591 Springs Road,Bedford,01730,,BEDFORD,(781) 280-3200,https://www.middlesex.mass.edu/,166887,PUB,Community College,"C, A","Less than one year certificate;One but less than two years certificate;Associate's degree",,Suburb: Large,No,nces.ed.gov
249467.031499997,816371.8759,209,"4-year, Public",University of Massachusetts Dartmouth School for Marine Science and Technology,New Bedford - East,836 South Rodney French Boulevard,New Bedford,02744,1221,NEW BEDFORD,(508) 999-8193,http://www.umassd.edu/smast/,167987,PUB,University of Massachusetts,"C, B, PBC, M, PMC, D","Less than one year certificate;One but less than two years certificate;Bachelor's degree;Postbaccalaureate certificate;Master's degree;Post-master's certificate;Doctor's degree - research/scholarship;Doctor's degree - professional practice",Marine Science & Technology,Suburb: Midsize,Yes,nces.ed.gov
275611.602200001,796868.8508,210,"2-year, Public",Cape Cod Community College Adult and Continuing Education - Martha's Vineyard,Martha's Vineyard,100 Edgartown Vineyard Haven Road,Oak Bluffs,02557,,OAK BLUFFS,(508) 367-5792,https://www.capecod.edu/mv/,165194,PUB,Community College,"C, A","Less than one year certificate;Associate's degree",,City: Small,No,IN-WEBSITE
263654.457400002,851351.940200001,211,"2-year, Public",Cape Cod Community College,Plymouth Municipal Airport,246 South Meadow Road,Plymouth,02360,,PLYMOUTH,(508) 362-2131,http://www.capecod.edu/,165194,PUB,Community College,"C, A","Less than one year certificate;Associate's degree",,City: Small,No,IN-WEBSITE
244326.177000001,860043.7619,212,"2-year, Public",Cape Cod Community College,Burnell Hall at Bridgewater State,66 Hooper Street,Bridgewater,02325,,BRIDGEWATER,(508) 362-2131,http://www.capecod.edu/,165194,PUB,Community College,"C, A","Less than one year certificate;Associate's degree",,City: Small,No,IN-WEBSITE
237824.265199997,904819.180599999,213,"2-year, Public",Bunker Hill Community College,Chelsea,70 Everett Avenue,Chelsea,02150,2917,CHELSEA,(617) 228-2101,https://www.bhcc.edu/chelsea/,165112,PUB,Community College,"C, A","Less than one year certificate;Associate's degree",,City: Large,No,IN-WEBSITE
236978.277800001,891928.036200002,214,"< 2-year, Private for-profit",Millennium Training Institute,Dorchester/Milton Satellite Location,2 Granite Avenue,Milton,02186,,MILTON,(888) 388-9981,https://www.millennium.edu/,451264,PRI,Technical Institute,C,Less than one year certificate,Accounting Technology/Technician and Bookkeeping,Suburb: Large,No,nces.ed.gov
223314.715400003,913855.933800001,215,"< 2-year, Private for-profit",Gould Construction Institute,Burlington,"200 Wheeler Road, North Tower 4th Floor",Burlington,01803,,BURLINGTON,(781) 270-9990,http://www.gwgci.org/,,PRI,Private Occupational Program,C,,Electrician,Suburb: Small,No,mass.gov
237676.509000003,869302.509799998,216,"< 2-year, Private for-profit",Porter And Chester Institute,Brockton,609 Belmont Street,Brockton,02301,,BROCKTON,(774) 360-8300,https://www.porterchester.com,,PRI,Technical Institute,C,One but less than two years certificate,,Suburb: Large,No,mass.gov
